#dP2019  9 29  0  0  0.00000000      96 __u+U IGS08 FIT  IAC
## 2073      0.00000000   900.00000000 58755 0.0000000000000
+  115   C01C02C03C04C05C06C07C08C09C10C11C12C13C16C19C20C21
+        C22C23C24C25C26C27C28C29C30C32C33C34C35C36C37E01E02
+        E03E04E05E07E08E09E11E12E13E14E15E18E19E21E24E25E26
+        E27E30E31E33E36G01G02G03G04G05G06G07G08G09G10G11G12
+        G13G14G15G16G17G18G19G20G21G22G23G24G25G26G27G28G29
+        G30G31G32J01J02J03J07R01R02R03R05R07R08R09R11R12R13
+        R14R15R16R17R18R19R20R21R22R23R24R26R27  0  0  0  0
++        13 12 17 14 12  8  8  8  8  8  7  7  7  8  7  7  7
++         7  7  7  7  7  8  7  8  8  8  8  7  8  8 10  4  4
++         4  4  4  4  4  4  4  4  4  5  4  4  4  4  4  4  4
++         4  4  4  4  4  3  3  3  3  3  3  3  3  3  3  3  3
++         3  3  3  3  3  3  3  3  3  3  3  3  3  3  3  3  3
++         3  3  3  8  8  8 13  6  5  5  5  5  5  7  5  5  6
++         5  5  6  5  5  6  6  5  5  5  6  8  8  0  0  0  0
%c M  cc GPS ccc cccc cccc cccc cccc ccccc ccccc ccccc ccccc
%c cc cc ccc ccc cccc cccc cccc cccc ccccc ccccc ccccc ccccc
%f  1.2500000  1.025000000  0.00000000000  0.000000000000000
%f  0.0000000  0.000000000  0.00000000000  0.000000000000000
%i    0    0    0    0      0      0      0      0         0
%i    0    0    0    0      0      0      0      0         0
/* INFORMATION & ANALYSIS CENTER (IAC)            FINAL DATA
/* S/V CLOCKS ARE ALIGNED TO GNSS TIME                      
/* G:C1WC2W R:C1PC2P E:C1XC5X C:C2IC6I J:C1CC2S             
/* PCV:IGS14_2070 OL/AL:FES2004  NONE     YN ORB:CoN CLK:CoN
*  2019 09 29 15 30  0.00000000
PC01 -32323.606583  27093.059914    258.698994    -49.013296
PC02   4331.062984  41921.475054   -844.363000    840.238083
PC03 -14700.384743  39499.453059   -642.255004    171.421393
PC04 -39614.124388  14495.458561      3.871384 999999.999999
PC05  21925.970396  35985.617927   -920.281001    136.250521
PC06 -20980.426364  36055.542317   4766.254807    387.029649
PC07  -7918.212252  30919.136073  27956.158470   -162.068185
PC08 -20274.080446  18177.501654 -32220.896283     -9.583019
PC09 -10532.638839  36101.564907  18944.311956      3.270403
PC10   4026.668041  37627.886470  19197.959523   -222.140794
PC11  20647.764109 -18041.461518   5040.191418     85.275113
PC12  20029.518422   1536.707381 -19265.951366   -251.613911
PC13  -3848.473268  22956.420202 -35115.271966   -869.787724
PC16 -18082.707794  37059.075724   8340.957023   -883.590838
PC19  -4494.587386  25675.885889  -9968.689864    205.636180
PC20 -14004.146725  10937.918244 -21513.528171   -114.610574
PC21  15446.302670  10805.882818  20595.220738    284.619218
PC22   7715.953486  25749.400158   7555.730526   -160.946184
PC23 -14463.214038 -18629.438715 -14897.857274   -928.101496
PC24  21881.010128  -2914.564179 -17055.576875   -891.778579
PC25   4566.588168 -15543.226745 -22719.790067   -363.390652
PC26  25934.586614  10064.369097  -2000.615788    404.826727
PC27 -20287.997153  -2197.640198  19014.913127    197.983794
PC28  -4280.316869 -15919.479405  22516.910344    192.434815
PC29 -13390.598505  20837.680203 -12864.722703    125.188863
PC30 -23953.814828  13544.808510   4595.446082    200.440471
PC32 -15529.356363 -10660.361286 -20578.769764   -915.020453
PC33   4452.830695 -25641.586283  10045.099404   -426.298512
PC34  23963.047792 -13657.416543  -4302.197209   -114.849535
PC35   4766.119103  15854.764908 -22459.777599   -391.109457
PC36  -5110.042984  15366.945214  22760.250716   -906.952194
PC37 -25618.718170 -10973.327007   1526.949222   -542.168224
PE01   7157.651656  23979.240666  15823.176470   -700.165123
PE02  -7233.165683 -23991.482259 -15751.257600     82.145263
PE03   3149.814112 -28182.542172  -8456.587242   -216.260065
PE04  10756.171399  16761.062841  21902.817471   -375.286173
PE05  15356.681450 -23204.122906  10087.223561   -444.390518
PE07 -18509.779499   4700.431328 -22615.096642   -274.556487
PE08 -10856.103089 -16480.271075 -22056.794271   6284.927123
PE09  18347.690403  -4903.853111  22702.779548   6300.978708
PE11  29097.689763  -3240.696049  -4388.396670   5573.064062
PE12  18929.109771   9863.703253 -20511.189111   6174.406177
PE13 -29068.260044   3298.414027   4532.419775    393.528116
PE14  -6105.805445  25970.363760 -14806.150764   -738.080244
PE15 -19254.699603  -9523.896625  20372.176275    893.531037
PE18  15545.576044 -21281.529750   2871.921120   -832.455831
PE19  -4638.603933  28481.833553   6596.182460     -3.697075
PE21 -10473.740223  12757.567531  24577.414198   -557.523273
PE24  21964.224999   5941.198246 -18927.680464   5845.880786
PE25  10544.572954 -12670.733996 -24570.911644   1663.223022
PE26 -21843.803809  14202.016306 -14060.081679   4051.375640
PE27 -22017.513161  -5979.227054  18868.754639    377.255032
PE30 -20508.082771 -21239.364206   2147.646053   4507.496562
PE31  20592.536330  21167.871157  -2071.674529   -469.017941
PE33  -1875.543772  16790.656080 -24302.249645   -470.596887
PE36  21853.386236 -14219.687009  14009.944261    655.975043
PG01  15332.311922  13629.604765 -17245.068024   -145.222213
PG02   7383.642255 -14753.331670  21409.703182   -315.426597
PG03  13526.617429  22294.217842   5237.127226    -16.363642
PG04 -12690.065801  22970.506244  -1146.209113      9.269089
PG05   -470.494212 -23010.366667  12944.803610     -1.854721
PG06  21551.480037  -6986.703394  13925.124583    -73.587450
PG07  25658.980735   6574.295713   4488.145166   -116.591920
PG08   -634.139780  20457.048659 -16776.487773     -8.186534
PG09  16009.369563   3204.676821  20902.718565    -43.660094
PG10 -15127.984583   2832.730993 -21602.415021    -73.681925
PG11  11351.655229  13011.591272 -20649.011230   -492.933376
PG12  -9520.915347 -24853.106485   1131.586393    199.112616
PG13  10625.873044 -21816.288940 -10833.801961    -41.660050
PG14 -18366.337943  18916.654915  -1909.973526    -58.775435
PG15  -2718.164022 -20221.791144 -17081.064451   -283.473000
PG16  -2846.037758  21869.282337  14283.763367    -78.616516
PG17  20200.135492 -13102.839135 -10699.237172    134.800299
PG18   6354.241781  15426.981066 -21192.831589     89.371592
PG19  20039.260974 -16759.324567  -5173.993997   -260.597681
PG20 -19003.280144  -6613.552535 -17528.712331    527.039297
PG21 -26333.766338  -2430.381827   1352.697967   -110.650788
PG22  10810.906371  24194.936108  -2222.280669   -759.505049
PG23   8728.269809  14038.360083  21066.694867   -164.224113
PG24 -13339.336804 -14286.152833 -18297.937388     -2.776223
PG25 -16660.211855 -15948.146431  13183.290715    -13.924450
PG26  -9022.414760  14740.912385  20102.115308     50.167963
PG27 -11159.803428  22914.029284  -7000.852731    -71.425420
PG28  14426.270960  -2368.947831 -21564.973159    760.712166
PG29 -13850.914287  -6020.012607  21818.023355     84.691634
PG30  25751.771806   -965.577949  -6811.161886    -50.972336
PG31 -20571.618402   7772.233315  15200.828179      7.048981
PG32 -19761.968201  13629.757783 -11162.545271     74.156477
PJ01 -19471.854256  29360.804158 -18588.885872   -343.221990
PJ02 -26114.951246  20770.453168  30610.342163     -4.857701
PJ03 -34499.755801  24259.211990   6553.926828     -2.834919
PJ07 -25403.354701  33657.057955    -13.125160     -0.069634
PR01   8777.710888  12845.619064  20215.850596     50.442681
PR02  10925.236744  -9738.255261  20941.095574    390.445341
PR03   6122.550264 -23444.907859   8080.611826      2.307002
PR05  -9104.810547 -10411.292436 -21432.181159     36.608117
PR07  -5873.453535  23639.279062  -7476.739728    -27.319384
PR08   2177.140169  23646.424062   9348.771534     15.399733
PR09 -15584.613005    981.799325  20166.396986     93.153710
PR11  13648.529290  17356.736167  12839.858849    -81.007693
PR12  21480.050129  13298.406431  -3425.889027     65.868415
PR13  17158.357072   1072.272367 -18855.943573    -29.035512
PR14   2883.901052 -11279.436595 -22674.462055     43.482666
PR15 -13007.327173 -17232.128495 -13553.797149    104.183498
PR16 -21817.808789 -12806.726596   3693.729408      3.462981
PR17  16024.742928 -14176.362860  13857.819399    264.200404
PR18    -27.091507 -11317.235425  22876.151497      9.152792
PR19 -15976.020473  -2812.412978  19687.710555    -56.295714
PR20 -23836.250830   8330.612815   3494.564076   -391.879368
PR21 -15539.408583  14171.364005 -14463.712378    -75.516966
PR22   3155.090847  10021.433901 -23238.601476   -177.701198
PR23  19920.826069  -1027.083714 -15903.163997    257.035614
PR24  23538.552448  -9733.333008  -1438.962148   -185.222103
PR26 -23535.051920   7095.953138   6886.353584     -1.922356
PR27  -8994.983987 -16517.444170 -17265.106092    125.157337
EOF
